ONEWEB-0283             
1 49001U 21060AL  25152.41658569 -.00002021  00000+0 -53238-2 0  9991
2 49001  87.9027 304.6851 0001643 104.5872 255.5441 13.16579077189513
ONEWEB-0284             
1 49002U 21060AM  25152.79022768  .00000110  00000+0  25396-3 0  9999
2 49002  87.9034 304.5766 0002173  97.2771 262.8607 13.16596212190855
ONEWEB-0285             
1 49075U 21075A   25152.48436633 -.00000286  00000+0 -82995-3 0  9995
2 49075  87.8888  66.3871 0001990  79.9068 280.2285 13.12444707185276
ONEWEB-0286             
1 49076U 21075B   25152.77121131 -.00000132  00000+0 -40241-3 0  9990
2 49076  87.8913  66.3452 0002007  73.7234 286.4115 13.12439535185642
ONEWEB-0287             
1 49077U 21075C   25152.87832246  .00000077  00000+0  16597-3 0  9991
2 49077  87.9068  81.5811 0002320  71.3060 288.8323 13.17650562184514
ONEWEB-0288             
1 49078U 21075D   25152.51829508  .00000478  00000+0  12927-2 0  9997
2 49078  87.8884  66.3746 0002143  79.1351 281.0018 13.12444728185258
ONEWEB-0289             
1 49079U 21075E   25152.52732286  .00000101  00000+0  22649-3 0  9991
2 49079  87.9068  81.6825 0002409  88.7840 271.3568 13.17648931184074
ONEWEB-0290             
1 49080U 21075F   25152.20670244  .00000041  00000+0  72298-4 0  9992
2 49080  87.9068  81.7025 0002347  95.9593 264.1806 13.17649571183441
